SL-16 R/B               
1 22803U 93059B   26074.26456779  .00000109  00000+0  77433-4 0  9993
2 22803  70.9930 359.3708 0018205 208.3331 151.6804 14.17231741680321
ARIANE 40 R/B           
1 22830U 93061H   26074.21517777  .00000208  00000+0  91898-4 0  9998
2 22830  98.4905 142.9935 0009567 266.8484  93.1606 14.32864044694897
COSMOS 2278             
1 23087U 94023A   26074.25559633 -.00000087  00000+0 -21009-4 0  9997
2 23087  71.0548 163.4539 0008440   3.2480 356.8696 14.14379581645596
SL-16 R/B               
1 23088U 94023B   26074.22887643 -.00000154  00000+0 -54803-4 0  9993
2 23088  70.9985  59.2525 0005641 280.1567  79.8919 14.15010198646878
SL-16 R/B               
1 23343U 94074B   26074.14265480  .00000539  00000+0  78865-4 0  9992
2 23343  97.7101 104.7396 0006174 191.2631 261.8911 14.79415046688059
SL-16 R/B               
1 23405U 94077B   26074.13768685  .00000241  00000+0  14773-3 0  9995
2 23405  70.9852 341.0289 0002782 205.3386 154.7600 14.15562839617001
ARIANE 40+ R/B          
1 23561U 95021B   26074.16675487  .00000320  00000+0  11598-3 0  9998
2 23561  98.4486 145.5750 0007830 122.0875 292.7605 14.39776848620037
SL-16 R/B               
1 23705U 95058B   26074.28627539  .00000230  00000+0  14195-3 0  9992
2 23705  71.0224 168.5058 0010563 115.6521 244.5695 14.15499061568648
SL-16 R/B               
1 24298U 96051B   26074.26512737  .00000069  00000+0  64245-4 0  9997
2 24298  70.7601 163.4386 0014611 139.4048 220.8164 14.12417174522432
ORBVIEW 2 (SEASTAR)     
1 24883U 97037A   26074.20315267  .00000300  00000+0  12064-3 0  9994
2 24883  98.8576 238.6612 0002957  60.6949 299.4530 14.35499230509269
SL-16 R/B               
1 25400U 98043G   26074.13417211  .00000064  00000+0  45640-4 0  9996
2 25400  98.8261  27.5364 0009940   5.1582 354.9698 14.26051124439766
SL-16 R/B               
1 25407U 98045B   26073.72939229  .00000303  00000+0  17702-3 0  9990
2 25407  71.0120 170.9764 0007062   0.3412 359.7715 14.16192942427818
ISS (ZARYA)             
1 25544U 98067A   26074.19246378  .00009711  00000+0  18872-3 0  9995
2 25544  51.6330  45.1519 0006363 192.7288 167.3540 15.48288531557187
CZ-4B R/B               
1 25732U 99025C   26074.09650515  .00000077  00000+0  57840-4 0  9995
2 25732  98.6615 118.2497 0036465 330.8949  84.2904 14.18266530388932
OKEAN-O                 
1 25860U 99039A   26074.05942623  .00000793  00000+0  11084-3 0  9996
2 25860  97.9430 133.8960 0001087  72.1947 287.9384 14.80345334435188
SL-16 R/B               
1 25861U 99039B   26074.16929424  .00000585  00000+0  80993-4 0  9998
2 25861  97.9953 133.2576 0013666 236.6709 123.3196 14.81739751437676
DELTA 2 R/B             
1 25876U 99041E   26074.24672219  .00001203  00000+0  23199-3 0  9995
2 25876  51.7617 279.0834 0502518   4.8245 355.7277 14.11855322363813
